{
 "generated_at": "2026-07-03T08:09:24Z",
 "sources": [
  {
   "name": "CelesTrak",
   "url": "https://celestrak.org/NORAD/elements/",
   "license": "frei verfügbar; Attribution. Ursprünglich USSPACECOM/Space-Track."
  },
  {
   "name": "GCAT (J. McDowell, planet4589.org)",
   "url": "https://planet4589.org/space/gcat/",
   "license": "CC-BY 4.0"
  }
 ],
 "satellites": [
  {
   "norad": 52200,
   "name": "GAOFEN-3 03",
   "intl": "2022-035A",
   "group": "sar",
   "gcat": {
    "class": "C",
    "category": "IMG-R",
    "owner": "GWHYZ",
    "state": "CN"
   },
   "omm": {
    "OBJECT_NAME": "GAOFEN-3 03",
    "OBJECT_ID": "2022-035A",
    "EPOCH": "2026-07-02T18:29:17.895264",
    "MEAN_MOTION": 14.42216548,
    "ECCENTRICITY": 0.0001627,
    "INCLINATION": 98.4057,
    "RA_OF_ASC_NODE": 192.1245,
    "ARG_OF_PERICENTER": 97.02,
    "MEAN_ANOMALY": 263.1174,
    "EPHEMERIS_TYPE": 0,
    "CLASSIFICATION_TYPE": "U",
    "NORAD_CAT_ID": 52200,
    "ELEMENT_SET_NO": 999,
    "REV_AT_EPOCH": 22309,
    "BSTAR": -0.0000047575,
    "MEAN_MOTION_DOT": -5.9e-7,
    "MEAN_MOTION_DDOT": 0
   }
  },
  {
   "norad": 41194,
   "name": "GAOFEN-4",
   "intl": "2015-083A",
   "group": "resource",
   "gcat": {
    "class": "C",
    "category": "IMG",
    "owner": "CNSAS",
    "state": "CN"
   },
   "omm": {
    "OBJECT_NAME": "GAOFEN-4",
    "OBJECT_ID": "2015-083A",
    "EPOCH": "2026-07-01T14:31:54.862176",
    "MEAN_MOTION": 1.00268667,
    "ECCENTRICITY": 0.00042432,
    "INCLINATION": 0.3936,
    "RA_OF_ASC_NODE": 83.8387,
    "ARG_OF_PERICENTER": 111.7154,
    "MEAN_ANOMALY": 47.7566,
    "EPHEMERIS_TYPE": 0,
    "CLASSIFICATION_TYPE": "U",
    "NORAD_CAT_ID": 41194,
    "ELEMENT_SET_NO": 999,
    "REV_AT_EPOCH": 3867,
    "BSTAR": 0,
    "MEAN_MOTION_DOT": -0.00000324,
    "MEAN_MOTION_DDOT": 0
   }
  },
  {
   "norad": 43461,
   "name": "GAOFEN-5 01",
   "intl": "2018-043A",
   "group": "resource",
   "gcat": {
    "class": null,
    "category": null,
    "owner": null,
    "state": null
   },
   "omm": {
    "OBJECT_NAME": "GAOFEN-5 01",
    "OBJECT_ID": "2018-043A",
    "EPOCH": "2026-07-02T16:20:24.885312",
    "MEAN_MOTION": 14.60616345,
    "ECCENTRICITY": 0.0002701,
    "INCLINATION": 98.4579,
    "RA_OF_ASC_NODE": 155.5932,
    "ARG_OF_PERICENTER": 55.565,
    "MEAN_ANOMALY": 304.5805,
    "EPHEMERIS_TYPE": 0,
    "CLASSIFICATION_TYPE": "U",
    "NORAD_CAT_ID": 43461,
    "ELEMENT_SET_NO": 999,
    "REV_AT_EPOCH": 43395,
    "BSTAR": 0.000088497,
    "MEAN_MOTION_DOT": 0.00000381,
    "MEAN_MOTION_DDOT": 0
   }
  },
  {
   "norad": 43484,
   "name": "GAOFEN-6",
   "intl": "2018-048A",
   "group": "resource",
   "gcat": {
    "class": "C",
    "category": "IMG",
    "owner": "CNSAS",
    "state": "CN"
   },
   "omm": {
    "OBJECT_NAME": "GAOFEN-6",
    "OBJECT_ID": "2018-048A",
    "EPOCH": "2026-07-02T19:03:02.797632",
    "MEAN_MOTION": 14.76368481,
    "ECCENTRICITY": 0.0011918,
    "INCLINATION": 98.0964,
    "RA_OF_ASC_NODE": 246.4659,
    "ARG_OF_PERICENTER": 116.4307,
    "MEAN_ANOMALY": 243.8126,
    "EPHEMERIS_TYPE": 0,
    "CLASSIFICATION_TYPE": "U",
    "NORAD_CAT_ID": 43484,
    "ELEMENT_SET_NO": 999,
    "REV_AT_EPOCH": 43569,
    "BSTAR": -0.000019395,
    "MEAN_MOTION_DOT": -0.00000187,
    "MEAN_MOTION_DDOT": 0
   }
  },
  {
   "norad": 40701,
   "name": "GAOFEN-8",
   "intl": "2015-030A",
   "group": "resource",
   "gcat": {
    "class": "D",
    "category": "IMG",
    "owner": "ZZB",
    "state": "CN"
   },
   "omm": {
    "OBJECT_NAME": "GAOFEN-8",
    "OBJECT_ID": "2015-030A",
    "EPOCH": "2026-07-02T19:31:44.847264",
    "MEAN_MOTION": 15.46534262,
    "ECCENTRICITY": 0.0009674,
    "INCLINATION": 97.6891,
    "RA_OF_ASC_NODE": 18.1269,
    "ARG_OF_PERICENTER": 133.6428,
    "MEAN_ANOMALY": 226.5624,
    "EPHEMERIS_TYPE": 0,
    "CLASSIFICATION_TYPE": "U",
    "NORAD_CAT_ID": 40701,
    "ELEMENT_SET_NO": 999,
    "REV_AT_EPOCH": 61386,
    "BSTAR": 0.00046389,
    "MEAN_MOTION_DOT": 0.00023026,
    "MEAN_MOTION_DDOT": 0
   }
  },
  {
   "norad": 40894,
   "name": "GAOFEN-9 01",
   "intl": "2015-047A",
   "group": "resource",
   "gcat": {
    "class": null,
    "category": null,
    "owner": null,
    "state": null
   },
   "omm": {
    "OBJECT_NAME": "GAOFEN-9 01",
    "OBJECT_ID": "2015-047A",
    "EPOCH": "2026-07-02T18:50:02.040576",
    "MEAN_MOTION": 14.82915465,
    "ECCENTRICITY": 0.0028898,
    "INCLINATION": 97.6268,
    "RA_OF_ASC_NODE": 218.7704,
    "ARG_OF_PERICENTER": 89.1259,
    "MEAN_ANOMALY": 271.3266,
    "EPHEMERIS_TYPE": 0,
    "CLASSIFICATION_TYPE": "U",
    "NORAD_CAT_ID": 40894,
    "ELEMENT_SET_NO": 999,
    "REV_AT_EPOCH": 58250,
    "BSTAR": 0.00015608,
    "MEAN_MOTION_DOT": 0.00001224,
    "MEAN_MOTION_DDOT": 0
   }
  },
  {
   "norad": 43823,
   "name": "GEO-KOMPSAT-2A",
   "intl": "2018-100A",
   "group": "weather",
   "gcat": {
    "class": "C",
    "category": "MET",
    "owner": "KARI",
    "state": "KR"
   },
   "omm": {
    "OBJECT_NAME": "GEO-KOMPSAT-2A",
    "OBJECT_ID": "2018-100A",
    "EPOCH": "2026-07-02T18:18:50.028192",
    "MEAN_MOTION": 1.00268776,
    "ECCENTRICITY": 0.0002258,
    "INCLINATION": 0.0452,
    "RA_OF_ASC_NODE": 170.3409,
    "ARG_OF_PERICENTER": 284.1162,
    "MEAN_ANOMALY": 229.2952,
    "EPHEMERIS_TYPE": 0,
    "CLASSIFICATION_TYPE": "U",
    "NORAD_CAT_ID": 43823,
    "ELEMENT_SET_NO": 999,
    "REV_AT_EPOCH": 2778,
    "BSTAR": 0,
    "MEAN_MOTION_DOT": -0.00000333,
    "MEAN_MOTION_DDOT": 0
   }
  },
  {
   "norad": 33331,
   "name": "GEOEYE 1",
   "intl": "2008-042A",
   "group": "resource",
   "gcat": {
    "class": null,
    "category": "IMG",
    "owner": "GEYE",
    "state": "US"
   },
   "omm": {
    "OBJECT_NAME": "GEOEYE 1",
    "OBJECT_ID": "2008-042A",
    "EPOCH": "2026-07-02T19:06:11.495232",
    "MEAN_MOTION": 14.6464094,
    "ECCENTRICITY": 0.0004873,
    "INCLINATION": 98.1333,
    "RA_OF_ASC_NODE": 257.5367,
    "ARG_OF_PERICENTER": 25.4054,
    "MEAN_ANOMALY": 334.7387,
    "EPHEMERIS_TYPE": 0,
    "CLASSIFICATION_TYPE": "U",
    "NORAD_CAT_ID": 33331,
    "ELEMENT_SET_NO": 999,
    "REV_AT_EPOCH": 95243,
    "BSTAR": 0.00011602,
    "MEAN_MOTION_DOT": 0.00000569,
    "MEAN_MOTION_DDOT": 0
   }
  },
  {
   "norad": 35491,
   "name": "GOES 14",
   "intl": "2009-033A",
   "group": "weather",
   "gcat": {
    "class": "C",
    "category": "MET",
    "owner": "NOAA",
    "state": "US"
   },
   "omm": {
    "OBJECT_NAME": "GOES 14",
    "OBJECT_ID": "2009-033A",
    "EPOCH": "2026-07-02T18:20:42.920160",
    "MEAN_MOTION": 1.00105344,
    "ECCENTRICITY": 0.000223,
    "INCLINATION": 1.7278,
    "RA_OF_ASC_NODE": 82.866,
    "ARG_OF_PERICENTER": 26.4183,
    "MEAN_ANOMALY": 219.3743,
    "EPHEMERIS_TYPE": 0,
    "CLASSIFICATION_TYPE": "U",
    "NORAD_CAT_ID": 35491,
    "ELEMENT_SET_NO": 999,
    "REV_AT_EPOCH": 674,
    "BSTAR": 0,
    "MEAN_MOTION_DOT": -0.00000329,
    "MEAN_MOTION_DDOT": 0
   }
  },
  {
   "norad": 41866,
   "name": "GOES 16",
   "intl": "2016-071A",
   "group": "weather",
   "gcat": {
    "class": "C",
    "category": "MET",
    "owner": "NOAA",
    "state": "US"
   },
   "omm": {
    "OBJECT_NAME": "GOES 16",
    "OBJECT_ID": "2016-071A",
    "EPOCH": "2026-07-02T16:54:17.554176",
    "MEAN_MOTION": 1.00272031,
    "ECCENTRICITY": 0.0000562,
    "INCLINATION": 0.3771,
    "RA_OF_ASC_NODE": 85.5912,
    "ARG_OF_PERICENTER": 33.2401,
    "MEAN_ANOMALY": 310.7945,
    "EPHEMERIS_TYPE": 0,
    "CLASSIFICATION_TYPE": "U",
    "NORAD_CAT_ID": 41866,
    "ELEMENT_SET_NO": 999,
    "REV_AT_EPOCH": 3525,
    "BSTAR": 0,
    "MEAN_MOTION_DOT": -8e-7,
    "MEAN_MOTION_DDOT": 0
   }
  }
 ]
}
