[{"name":"GOES 14","l1":"1 35491U 09033A   26183.76438565 -.00000329  00000+0  00000+0 0  9994","l2":"2 35491   1.7278  82.8660 0002230  26.4183 219.3743  1.00105344  6744","cat":"geostationary"},{"name":"GAOFEN-4","l1":"1 41194U 15083A   26182.60549609 -.00000324  00000+0  00000+0 0  9992","l2":"2 41194   0.3936  83.8387 0004243 111.7154  47.7566  1.00268667 38677","cat":"geostationary"},{"name":"GOES 16","l1":"1 41866U 16071A   26183.70436984 -.00000080  00000+0  00000+0 0  9998","l2":"2 41866   0.3771  85.5912 0000562  33.2401 310.7945  1.00272031 35251","cat":"geostationary"},{"name":"GEO-KOMPSAT-2A","l1":"1 43823U 18100A   26183.76307903 -.00000333  00000+0  00000+0 0  9993","l2":"2 43823   0.0452 170.3409 0002258 284.1162 229.2952  1.00268776 27780","cat":"geostationary"},{"name":"GEOEYE 1","l1":"1 33331U 08042A   26183.79596638  .00000569  00000+0  11602-3 0  9992","l2":"2 33331  98.1333 257.5367 0004873  25.4054 334.7387 14.64640940952435","cat":"other"},{"name":"GAOFEN-8","l1":"1 40701U 15030A   26183.81371351  .00023026  00000+0  46389-3 0  9995","l2":"2 40701  97.6891  18.1269 0009674 133.6428 226.5624 15.46534262613863","cat":"other"},{"name":"GAOFEN-9 01","l1":"1 40894U 15047A   26183.78474584  .00001224  00000+0  15608-3 0  9990","l2":"2 40894  97.6268 218.7704 0028898  89.1259 271.3266 14.82915465582505","cat":"other"},{"name":"GAOFEN-5 01","l1":"1 43461U 18043A   26183.68084358  .00000381  00000+0  88497-4 0  9997","l2":"2 43461  98.4579 155.5932 0002701  55.5650 304.5805 14.60616345433953","cat":"other"},{"name":"GAOFEN-6","l1":"1 43484U 18048A   26183.79378238 -.00000187  00000+0 -19395-4 0  9999","l2":"2 43484  98.0964 246.4659 0011918 116.4307 243.8126 14.76368481435690","cat":"other"},{"name":"GAOFEN-3 03","l1":"1 52200U 22035A   26183.77034601 -.00000059  00000+0 -47575-5 0  9997","l2":"2 52200  98.4057 192.1245 0001627  97.0200 263.1174 14.42216548223099","cat":"other"}]